CORVUS BC4              
1 43767U 18099K   26130.67269792  .00003288  00000+0  19399-3 0  9998
2 43767  97.4099 174.7543 0009777 125.4671 234.7474 15.12185898406733
M2 PATHFINDER           
1 45727U 20037E   26130.47150766  .00001955  00000+0  14407-3 0  9993
2 45727  97.8170 321.2812 0010317 281.9002  78.1066 15.04510972319827
NETSAT-4                
1 46504U 20068U   26130.58106927  .00011492  00000+0  26600-3 0  9998
2 46504  97.8623 135.8393 0007675  96.5237 263.6883 15.42616070309971
NETSAT-3                
1 46505U 20068V   26130.75256860  .00012343  00000+0  29738-3 0  9991
2 46505  97.8671 134.2901 0007510 108.9120 251.2940 15.41390330309918
NETSAT-1                
1 46506U 20068W   26130.50099479  .00008285  00000+0  25657-3 0  9992
2 46506  97.8758 128.7838 0006639 128.4883 231.6954 15.33723698309528
NETSAT-2                
1 46507U 20068X   26130.53891429  .00014557  00000+0  31676-3 0  9998
2 46507  97.8637 135.5622 0006123 117.1744 243.0128 15.44405705309923
GREENCUBE (IO-117)      
1 53109U 22080E   26130.52028823 -.00000003  00000+0  00000+0 0  9994
2 53109  70.1439 311.3507 0008874 298.5000  61.4765  6.42583327 89641
SITRO-AIS 5 (KATYS)     
1 57176U 23091L   26130.83189102  .00007186  00000+0  26071-3 0  9995
2 57176  97.5081 194.3981 0010545 227.9282 132.1062 15.28595501158639
SITRO-AIS 6 (CHIRKIN)   
1 57192U 23091AC  26130.85784493  .00003755  00000+0  15217-3 0  9997
2 57192  97.5089 193.7364 0010701 231.6094 128.4183 15.25235243158598
SITRO-AIS 8 (ANOKHIN)   
1 57193U 23091AD  26130.84689737  .00008734  00000+0  29265-3 0  9992
2 57193  97.5076 195.8549 0009864 222.9783 137.0688 15.31125528158732
SITRO-AIS 7 (FARTUSHNIY)
1 57194U 23091AE  26130.85358236  .00003556  00000+0  14555-3 0  9994
2 57194  97.5087 193.5758 0010531 232.7887 127.2390 15.24941865158585
SITRO-AIS 10 (BURDAEV)  
1 57199U 23091AK  26130.83520866  .00012198  00000+0  33674-3 0  9992
2 57199  97.5096 200.5251 0006841 193.4381 166.6682 15.37202996159028
SITRO-AIS 9 (SHCHUKIN)  
1 57201U 23091AM  26130.85028051  .00011589  00000+0  32474-3 0  9997
2 57201  97.5094 200.2985 0007040 194.1080 165.9968 15.36749426159018
SITRO-AIS 12 (SMIRENNIY)
1 57204U 23091AQ  26130.84786954  .00011996  00000+0  33304-3 0  9997
2 57204  97.5107 200.7401 0006859 188.0190 172.0946 15.37033600159033
SITRO-AIS 11 (SHEFFER)  
1 57208U 23091AU  26130.80608270  .00012182  00000+0  33395-3 0  9999
2 57208  97.5105 200.9215 0006790 187.8283 172.2857 15.37423662159049
SITRO-AIS 25            
1 59066U 24039R   26130.85350356  .00003129  00000+0  24398-3 0  9994
2 59066  95.3920 209.4421 0147568  98.5712 263.2265 14.93248184119158
SITRO-AIS 26            
1 59067U 24039S   26130.84986080  .00003278  00000+0  25658-3 0  9998
2 59067  95.3925 209.3448 0147906  99.1157 262.6836 14.93051315119142
SITRO-AIS 27            
1 59068U 24039T   26130.83047656  .00003895  00000+0  30180-3 0  9996
2 59068  95.3919 209.5859 0147048  97.9226 263.8718 14.93460818119160
SITRO-AIS 28            
1 59071U 24039U   26130.87577751  .00003184  00000+0  24717-3 0  9998
2 59071  95.3921 209.6625 0146738  97.6237 264.1682 14.93495519119174
GRBBETA                 
1 60237U 24128C   26130.85075300  .00002537  00000+0  18252-3 0  9992
2 60237  61.9910 347.2306 0045540 126.9509 233.5768 15.06330126100643
OOV-CUBE (TUBSAT-30)    
1 60240U 24128F   26130.85769269  .00001521  00000+0  12677-3 0  9997
2 60240  61.9952 355.7208 0049140 125.6222 234.9461 15.02581660100503
ROBUSTA-3A (MEDITERRAN*)
1 60243U 24128J   26130.82042720  .00004986  00000+0  30213-3 0  9997
2 60243  61.9876 340.3265 0046349 120.6974 239.8700 15.11086189100776
LASARSAT                
1 62391U 24247Q   26130.67276021  .00021675  00000+0  47036-3 0  9996
2 62391  44.9743 112.6269 0004515 101.8484 258.2911 15.44064287 77511
CROCUBE                 
1 62394U 24247T   26130.00143748  .00024854  00000+0  51051-3 0  9999
2 62394  44.9719 114.2849 0004189  97.3886 262.7480 15.45608845 77438
FORESAIL-1 PRIME        
1 66778U 25276DS  26130.76539273  .00003168  00000+0  15749-3 0  9996
2 66778  97.4207 204.7294 0001571 196.0026 164.1159 15.18355016 24728
KNACKSAT-2              
1 67683U 98067XZ  26130.38377494  .00027876  00000+0  38679-3 0  9992
2 67683  51.6283 124.1286 0012604  58.7321 301.4903 15.56732909 14383
