OBJECT_NAME,OBJECT_ID,EPOCH,MEAN_MOTION,ECCENTRICITY,INCLINATION,RA_OF_ASC_NODE,ARG_OF_PERICENTER,MEAN_ANOMALY,EPHEMERIS_TYPE,CLASSIFICATION_TYPE,NORAD_CAT_ID,ELEMENT_SET_NO,REV_AT_EPOCH,BSTAR,MEAN_MOTION_DOT,MEAN_MOTION_DDOT
CORVUS BC4,2018-099K,2026-05-10T16:08:41.100288,15.12185898,.0009777,97.4099,174.7543,125.4671,234.7474,0,U,43767,999,40673,.19399E-3,.3288E-4,0
M2 PATHFINDER,2020-037E,2026-05-10T11:18:58.261824,15.04510972,.0010317,97.8170,321.2812,281.9002,78.1066,0,U,45727,999,31982,.14407E-3,.1955E-4,0
NETSAT-4,2020-068U,2026-05-10T13:56:44.384928,15.42616070,.0007675,97.8623,135.8393,96.5237,263.6883,0,U,46504,999,30997,.266E-3,.11492E-3,0
NETSAT-3,2020-068V,2026-05-10T18:03:41.927040,15.41390330,.000751,97.8671,134.2901,108.9120,251.2940,0,U,46505,999,30991,.29738E-3,.12343E-3,0
NETSAT-1,2020-068W,2026-05-10T12:01:25.949856,15.33723698,.0006639,97.8758,128.7838,128.4883,231.6954,0,U,46506,999,30952,.25657E-3,.8285E-4,0
NETSAT-2,2020-068X,2026-05-10T12:56:02.194656,15.44405705,.0006123,97.8637,135.5622,117.1744,243.0128,0,U,46507,999,30992,.31676E-3,.14557E-3,0
GREENCUBE (IO-117),2022-080E,2026-05-10T12:29:12.903072,6.42583327,.0008874,70.1439,311.3507,298.5000,61.4765,0,U,53109,999,8964,0,-.3E-7,0
SITRO-AIS 5 (KATYS),2023-091L,2026-05-10T19:57:55.384128,15.28595501,.0010545,97.5081,194.3981,227.9282,132.1062,0,U,57176,999,15863,.26071E-3,.7186E-4,0
SITRO-AIS 6 (CHIRKIN),2023-091AC,2026-05-10T20:35:17.801952,15.25235243,.0010701,97.5089,193.7364,231.6094,128.4183,0,U,57192,999,15859,.15217E-3,.3755E-4,0
SITRO-AIS 8 (ANOKHIN),2023-091AD,2026-05-10T20:19:31.932768,15.31125528,.0009864,97.5076,195.8549,222.9783,137.0688,0,U,57193,999,15873,.29265E-3,.8734E-4,0
SITRO-AIS 7 (FARTUSHNIY),2023-091AE,2026-05-10T20:29:09.515904,15.24941865,.0010531,97.5087,193.5758,232.7887,127.2390,0,U,57194,999,15858,.14555E-3,.3556E-4,0
SITRO-AIS 10 (BURDAEV),2023-091AK,2026-05-10T20:02:42.028224,15.37202996,.0006841,97.5096,200.5251,193.4381,166.6682,0,U,57199,999,15902,.33674E-3,.12198E-3,0
SITRO-AIS 9 (SHCHUKIN),2023-091AM,2026-05-10T20:24:24.236064,15.36749426,.000704,97.5094,200.2985,194.1080,165.9968,0,U,57201,999,15901,.32474E-3,.11589E-3,0
SITRO-AIS 12 (SMIRENNIY),2023-091AQ,2026-05-10T20:20:55.928256,15.37033600,.0006859,97.5107,200.7401,188.0190,172.0946,0,U,57204,999,15903,.33304E-3,.11996E-3,0
SITRO-AIS 11 (SHEFFER),2023-091AU,2026-05-10T19:20:45.545280,15.37423662,.000679,97.5105,200.9215,187.8283,172.2857,0,U,57208,999,15904,.33395E-3,.12182E-3,0
SITRO-AIS 25,2024-039R,2026-05-10T20:29:02.707584,14.93248184,.0147568,95.3920,209.4421,98.5712,263.2265,0,U,59066,999,11915,.24398E-3,.3129E-4,0
SITRO-AIS 26,2024-039S,2026-05-10T20:23:47.973120,14.93051315,.0147906,95.3925,209.3448,99.1157,262.6836,0,U,59067,999,11914,.25658E-3,.3278E-4,0
SITRO-AIS 27,2024-039T,2026-05-10T19:55:53.174784,14.93460818,.0147048,95.3919,209.5859,97.9226,263.8718,0,U,59068,999,11916,.3018E-3,.3895E-4,0
SITRO-AIS 28,2024-039U,2026-05-10T21:01:07.176864,14.93495519,.0146738,95.3921,209.6625,97.6237,264.1682,0,U,59071,999,11917,.24717E-3,.3184E-4,0
GRBBETA,2024-128C,2026-05-10T20:25:05.059200,15.06330126,.004554,61.9910,347.2306,126.9509,233.5768,0,U,60237,999,10064,.18252E-3,.2537E-4,0
OOV-CUBE (TUBSAT-30),2024-128F,2026-05-10T20:35:04.648416,15.02581660,.004914,61.9952,355.7208,125.6222,234.9461,0,U,60240,999,10050,.12677E-3,.1521E-4,0
ROBUSTA-3A (MEDITERRANEE),2024-128J,2026-05-10T19:41:24.910080,15.11086189,.0046349,61.9876,340.3265,120.6974,239.8700,0,U,60243,999,10077,.30213E-3,.4986E-4,0
LASARSAT,2024-247Q,2026-05-10T16:08:46.482144,15.44064287,.0004515,44.9743,112.6269,101.8484,258.2911,0,U,62391,999,7751,.47036E-3,.21675E-3,0
CROCUBE,2024-247T,2026-05-10T00:02:04.198272,15.45608845,.00041891,44.9719,114.2849,97.3886,262.7480,0,U,62394,999,7743,.51051447E-3,.24854E-3,0
FORESAIL-1 PRIME,2025-276DS,2026-05-10T18:22:09.931872,15.18355016,.0001571,97.4207,204.7294,196.0026,164.1159,0,U,66778,999,2472,.15749E-3,.3168E-4,0
KNACKSAT-2,1998-067XZ,2026-05-10T09:12:38.154816,15.56732909,.0012604,51.6283,124.1286,58.7321,301.4903,0,U,67683,999,1438,.38679E-3,.27876E-3,0
